OBJECT_NAME,OBJECT_ID,EPOCH,MEAN_MOTION,ECCENTRICITY,INCLINATION,RA_OF_ASC_NODE,ARG_OF_PERICENTER,MEAN_ANOMALY,EPHEMERIS_TYPE,CLASSIFICATION_TYPE,NORAD_CAT_ID,ELEMENT_SET_NO,REV_AT_EPOCH,BSTAR,MEAN_MOTION_DOT,MEAN_MOTION_DDOT
STARLINK-6227,2023-088N,2024-09-27T19:22:24.615840,15.02536681,.0001339,43.0037,95.7418,264.2328,95.8362,0,U,57060,999,7096,.30873E-4,.213E-5,0
STARLINK-5869,2023-088P,2024-09-27T19:08:00.888000,15.02546563,.0000672,43.0021,95.6646,278.0370,82.0397,0,U,57061,999,6998,.10422E-4,-.63E-6,0
STARLINK-5536,2023-088Q,2024-09-27T19:03:35.682336,15.02536368,.0001337,43.0027,82.6157,269.5713,90.4976,0,U,57062,999,7111,.12523E-3,.1488E-4,0
STARLINK-5832,2023-088R,2024-09-27T18:56:50.287488,15.02532455,.0001171,43.0024,95.6039,275.1040,84.9669,0,U,57063,999,7096,.58497E-4,.587E-5,0
STARLINK-5822,2023-088S,2024-09-27T19:12:48.974976,15.02537038,.0001362,43.0041,95.6902,267.6706,92.3981,0,U,57064,999,6998,.68856E-4,.727E-5,0
STARLINK-5830,2023-088T,2024-09-27T18:58:26.039424,15.02534650,.0001119,43.0019,95.6132,274.2811,85.7904,0,U,57065,999,6998,.68024E-5,-.112E-5,0
STARLINK-5827,2023-088U,2024-09-27T19:01:37.738560,15.02538257,.0001283,43.0038,95.6314,265.1416,94.9280,0,U,57066,999,6998,.13477E-3,.1617E-4,0
STARLINK-5824,2023-088V,2024-09-27T18:48:50.630976,15.02537014,.0001361,43.0041,95.5626,267.5325,92.5362,0,U,57067,999,7096,.68997E-4,.729E-5,0
STARLINK-5844,2023-088W,2024-09-27T18:52:02.451072,15.02536154,.0001375,43.0032,95.5793,267.0573,93.0111,0,U,57068,999,7096,.95981E-4,.1093E-4,0
STARLINK-5821,2023-088X,2024-09-27T18:33:23.882112,15.02537144,.0001178,43.0030,83.3351,270.5590,89.5117,0,U,57069,999,7093,.70999E-4,.756E-5,0
STARLINK-5828,2023-088Y,2024-09-27T18:58:58.341792,15.02537976,.000141,43.0012,83.4711,293.3302,66.7392,0,U,57070,999,7110,.68829E-4,.726E-5,0
STARLINK-5834,2023-088Z,2024-09-27T18:44:35.543616,15.02535878,.0001379,43.0040,83.3959,273.6833,86.3852,0,U,57071,999,7093,.10149E-3,.1168E-4,0
STARLINK-5843,2023-088AA,2024-09-27T18:52:34.917600,15.02537016,.0001404,43.0033,83.4396,270.7563,89.3118,0,U,57072,999,7012,.47242E-3,.6184E-4,0
STARLINK-5838,2023-088AB,2024-09-27T18:57:22.591584,15.02530728,.0001492,43.0038,83.4635,268.8181,91.2490,0,U,57073,999,7012,.87386E-5,-.86E-6,0
STARLINK-5773,2023-088AC,2024-09-27T18:47:14.458272,15.02527988,.0000959,43.0003,95.5519,269.5780,90.4952,0,U,57074,999,7096,.21045E-3,.264E-4,0
STARLINK-5542,2023-088AD,2024-09-27T20:02:44.123424,15.02532864,.0001172,43.0025,82.9399,262.7526,97.3183,0,U,57075,999,7111,.56565E-4,.561E-5,0
STARLINK-6155,2023-088AE,2024-09-27T18:49:23.107872,15.02536995,.0001431,43.0029,83.4214,268.4344,91.6334,0,U,57076,999,7093,.87664E-4,.981E-5,0
STARLINK-6194,2023-088AF,2024-09-27T18:34:59.899296,15.02538227,.0001226,43.0030,83.3446,270.1212,89.9490,0,U,57077,999,7127,.23866E-4,.119E-5,0
STARLINK-6246,2023-088AG,2024-09-27T18:47:46.905792,15.02543820,.0001233,43.0029,83.4113,269.7711,90.2990,0,U,57078,999,7093,.86548E-4,.966E-5,0
STARLINK-6245,2023-088AH,2024-09-27T19:54:44.472096,15.02535999,.0001185,43.0013,82.8972,258.5447,101.5262,0,U,57079,999,7111,.60357E-4,.612E-5,0
STARLINK-6243,2023-088AJ,2024-09-27T18:39:45.632736,15.02557772,.0000896,43.0067,83.3761,278.5923,81.4818,0,U,57080,999,7093,.39869E-3,.5189E-4,0
STARLINK-6184,2023-088AK,2024-09-27T11:51:18.371232,15.02535213,.0001158,43.0018,84.6782,272.0441,88.0268,0,U,57081,999,7106,.73121E-4,.784E-5,0
STARLINK-6248,2023-088AL,2024-09-27T21:35:15.956736,15.02538037,.0001322,43.0043,82.5638,268.0322,92.0369,0,U,57082,999,7021,.10346E-3,.1194E-4,0
STARLINK-6253,2023-088AM,2024-09-27T13:15:51.037920,15.02539418,.0001003,43.0031,84.2589,279.1420,80.9309,0,U,57083,999,7107,.35965E-4,.282E-5,0
STARLINK-6240,2023-088AN,2024-09-27T13:28:37.958880,15.02537611,.0001505,43.0045,84.3268,265.6417,94.4253,0,U,57084,999,7107,.10032E-3,.1152E-4,0
STARLINK-6232,2023-088AP,2024-09-27T13:09:27.256032,15.02535902,.0001167,43.0024,84.2249,273.4607,86.6102,0,U,57085,999,7107,.74353E-4,.801E-5,0
STARLINK-6247,2023-088AQ,2024-09-27T19:46:44.931360,15.02536749,.0001152,43.0025,82.8571,283.6624,76.4090,0,U,57086,999,7111,.81215E-5,-.94E-6,0
STARLINK-6251,2023-088AR,2024-09-27T13:04:39.663264,15.02536254,.0001034,42.9986,84.1979,274.4704,85.6020,0,U,57087,999,7107,-.16789E-4,-.43E-5,0
STARLINK-6257,2023-088AS,2024-09-27T05:20:24.196128,15.02534228,.000116,43.0019,86.0825,275.5856,84.4854,0,U,57088,999,7102,.15558E-4,.7E-7,0
STARLINK-6259,2023-088AT,2024-09-27T19:13:11.374176,15.02536585,.0001222,43.0040,82.6801,269.6527,90.4175,0,U,57089,999,7111,.11005E-3,.1283E-4,0
STARLINK-6254,2023-088AU,2024-09-27T13:03:05.497632,15.02519321,.0001478,43.0031,84.1910,272.4154,87.6519,0,U,57090,999,7107,-.54817E-4,-.944E-5,0
STARLINK-6262,2023-088AV,2024-09-27T12:55:04.149408,15.02538283,.0001244,43.0020,84.1490,275.1413,84.9288,0,U,57091,999,7107,.44457E-4,.397E-5,0
STARLINK-6225,2023-088AW,2024-09-27T12:58:15.847680,15.02538398,.0001299,43.0029,84.1658,272.2055,87.8639,0,U,57092,999,7107,.6565E-4,.683E-5,0
STARLINK-6229,2023-088AX,2024-09-27T12:45:29.184192,15.02532954,.0001305,43.0022,84.0992,281.9411,78.1285,0,U,57093,999,7107,-.38265E-4,-.72E-5,0
STARLINK-6235,2023-088AY,2024-09-27T12:43:53.107392,15.02530752,.0001187,43.0024,84.0896,270.9435,89.1271,0,U,57094,999,7107,.32697E-4,.238E-5,0
STARLINK-6132,2023-090A,2024-09-27T16:29:47.994720,15.02536325,.0001405,43.0048,264.0590,268.2640,91.8041,0,U,57101,999,7098,.57572E-4,.574E-5,0
STARLINK-6111,2023-090B,2024-09-27T16:21:48.318336,15.02536643,.000155,43.0030,264.0153,268.9170,91.1495,0,U,57102,999,7098,.11357E-3,.1331E-4,0
STARLINK-6123,2023-090C,2024-09-27T22:39:04.030560,15.02533200,.0001358,43.0043,236.5068,271.5684,88.5003,0,U,57103,999,7018,.53879E-4,.524E-5,0
STARLINK-6130,2023-090D,2024-09-28T00:23:38.880672,15.02530541,.0001367,43.0059,262.2289,263.8695,96.1992,0,U,57104,999,6989,.47683E-4,.44E-5,0
STARLINK-6097,2023-090E,2024-09-28T00:18:50.918112,15.02549825,.0001227,43.0046,262.2002,277.7483,82.3220,0,U,57105,999,6989,-.10332E-3,-.16E-4,0
STARLINK-6118,2023-090F,2024-09-27T16:12:13.239072,15.02535874,.0001235,43.0035,263.9637,275.0848,84.9854,0,U,57106,999,7098,.12254E-3,.1452E-4,0
STARLINK-6131,2023-090G,2024-09-27T23:51:40.600224,15.02534488,.0001529,43.0041,262.0584,264.4244,95.6424,0,U,57107,999,6989,.1511E-3,.1838E-4,0
STARLINK-6099,2023-090H,2024-09-27T16:15:25.047936,15.02535928,.0001223,43.0037,263.9814,275.8442,84.2261,0,U,57108,999,7098,.12321E-3,.1461E-4,0
STARLINK-6139,2023-090J,2024-09-27T16:01:01.510176,15.02539781,.0001559,43.0033,263.9067,264.3090,95.7574,0,U,57109,999,7098,.56451E-4,.559E-5,0
STARLINK-6134,2023-090K,2024-09-27T16:17:00.806784,15.02535576,.0001749,43.0061,263.9904,263.1912,96.8731,0,U,57110,999,7098,.14612E-3,.1771E-4,0
STARLINK-6140,2023-090L,2024-09-27T09:20:32.234208,15.02537083,.0001212,43.0031,265.2611,264.1063,95.9641,0,U,57111,999,7094,.575E-4,.573E-5,0
STARLINK-6141,2023-090M,2024-09-27T16:07:27.039936,15.02516485,.000135,43.0061,263.9420,276.2560,83.8128,0,U,57112,999,7098,-.10613E-4,-.347E-5,0
STARLINK-6142,2023-090N,2024-09-27T23:50:04.843968,15.02536889,.0001204,43.0043,262.0534,279.3585,80.7121,0,U,57113,999,6989,.89818E-4,.101E-4,0
STARLINK-6125,2023-090P,2024-09-27T06:12:17.251200,15.02529668,.0001089,43.0027,265.9980,270.9904,89.0813,0,U,57114,999,7092,-.38103E-4,-.718E-5,0
STARLINK-6085,2023-090Q,2024-09-27T06:04:17.031360,15.02536869,.0001337,43.0030,265.9578,277.4519,82.6172,0,U,57115,999,7092,-.17036E-4,-.434E-5,0
STARLINK-6129,2023-090R,2024-09-27T15:56:14.095392,15.02539734,.0001384,43.0043,263.8812,275.0886,84.9798,0,U,57116,999,7098,.3528E-5,-.156E-5,0
STARLINK-6148,2023-090S,2024-09-27T09:10:56.928576,15.02536781,.0000952,43.0012,265.2084,265.4936,94.5798,0,U,57117,999,7094,.74716E-4,.806E-5,0
STARLINK-6151,2023-090T,2024-09-27T09:18:56.506464,15.02531886,.0001164,43.0034,265.2505,270.1089,89.9620,0,U,57118,999,7094,.34774E-4,.266E-5,0
STARLINK-6150,2023-090U,2024-09-28T01:01:50.056608,15.02536681,.0000991,43.0026,261.5627,272.8083,87.2646,0,U,57119,999,6990,.10597E-3,.1228E-4,0
STARLINK-6147,2023-090V,2024-09-27T23:35:38.625216,15.02569977,.0000508,43.0017,261.9704,280.5696,79.5089,0,U,57120,999,6989,.33053E-3,.4268E-4,0
STARLINK-6152,2023-090W,2024-09-28T00:49:03.139968,15.02537433,.0000931,43.0018,261.4954,273.5069,86.5667,0,U,57121,999,6990,.81384E-4,.896E-5,0
STARLINK-6149,2023-090X,2024-09-27T16:58:23.911680,15.02540669,.0000959,43.0029,263.3436,270.0679,90.0054,0,U,57122,999,7099,-.16796E-4,-.43E-5,0
STARLINK-6154,2023-090Y,2024-09-28T00:44:15.184320,15.02534870,.0001318,43.0028,261.4685,265.3074,94.7617,0,U,57123,999,6990,.66474E-4,.694E-5,0
STARLINK-6146,2023-090Z,2024-09-28T00:53:50.733600,15.02537619,.0000969,43.0021,261.5212,276.2119,83.8613,0,U,57124,999,6990,.96981E-4,.1107E-4,0
STARLINK-6100,2023-090AA,2024-09-27T08:26:44.389824,15.02534244,.0001539,43.0037,252.8181,284.6729,75.3943,0,U,57125,999,7089,.51555E-4,.493E-5,0
STARLINK-6167,2023-090AB,2024-09-28T00:52:14.958336,15.02536289,.0000947,43.0024,261.5130,269.8202,90.2532,0,U,57126,999,6990,.71539E-4,.763E-5,0
STARLINK-6165,2023-090AC,2024-09-27T16:39:13.192416,15.02535336,.0001357,43.0037,263.2402,267.4041,92.6646,0,U,57127,999,7080,.66876E-4,.7E-5,0
STARLINK-6163,2023-090AD,2024-09-28T00:47:26.869632,15.02539701,.0001113,43.0030,261.4846,275.3807,84.6908,0,U,57128,999,6990,.10361E-3,.1196E-4,0
STARLINK-6170,2023-090AE,2024-09-27T15:10:25.288032,15.02536816,.0001737,43.0040,251.4824,282.0791,77.9857,0,U,57129,999,7093,.25878E-4,.146E-5,0
STARLINK-6172,2023-090AF,2024-09-28T00:39:27.677088,15.02537949,.0000959,43.0023,261.4442,272.1815,87.8918,0,U,57130,999,6990,.14652E-4,-.6E-7,0
STARLINK-6162,2023-090AG,2024-09-27T23:02:40.290720,15.02536152,.0000977,43.0000,249.6386,269.4055,90.6676,0,U,57131,999,7003,.4564E-4,.413E-5,0
STARLINK-6128,2023-090AH,2024-09-27T10:08:19.131360,15.02535165,.0001115,43.0024,264.6439,272.5099,87.5615,0,U,57132,999,7076,.57264E-4,.57E-5,0
